start=new Date('2023-02-14T00:00:00.000Z').valueOf();
sats=[{"COUNTRY_CODE":"US","TIME_SYSTEM":"UTC","PERIAPSIS":"514.256","MEAN_ELEMENT_THEORY":"SGP4","CLASSIFICATION_TYPE":"U","DECAY_DATE":null,"MEAN_MOTION_DOT":"0.00070257","ELEMENT_SET_NO":"999","OBJECT_NAME":"STARLINK-1419","PERIOD":"94.965","ARG_OF_PERICENTER":"85.6322","TLE_LINE2":"2 45694  53.0514  40.5995 0003853  85.6322 274.5112 15.16340953150088","BSTAR":"0.00356020000000","ECCENTRICITY":"0.00038530","RA_OF_ASC_NODE":"40.5995","SITE":"AFETR","FILE":"3789366","LAUNCH_DATE":"2020-06-04","OBJECT_TYPE":"PAYLOAD","MEAN_MOTION":"15.16340953","RCS_SIZE":"LARGE","MEAN_MOTION_DDOT":"0.0000000000000","OBJECT_ID":"2020-035AP","INCLINATION":"53.0514","REV_AT_EPOCH":"15008","APOAPSIS":"519.569","EPOCH":"2023-02-13T09:27:55.465344","REF_FRAME":"TEME","NORAD_CAT_ID":"45694","GP_ID":"225320715","TLE_LINE1":"1 45694U 20035AP  23044.39439196  .00070257  00000-0  35602-2 0  9994","CENTER_NAME":"EARTH","SEMIMAJOR_AXIS":"6895.048","EPHEMERIS_TYPE":"0","MEAN_ANOMALY":"274.5112"},{"OBJECT_ID":"2020-035AQ","INCLINATION":"53.0531","APOAPSIS":"548.205","REV_AT_EPOCH":"15030","EPOCH":"2023-02-13T10:00:40.260096","REF_FRAME":"TEME","NORAD_CAT_ID":"45695","TLE_LINE1":"1 45695U 20035AQ  23044.41713264  .00023906  00000-0  16175-2 0  9992","GP_ID":"225320965","SEMIMAJOR_AXIS":"6925.288","CENTER_NAME":"EARTH","EPHEMERIS_TYPE":"0","MEAN_ANOMALY":"260.2665","TIME_SYSTEM":"UTC","COUNTRY_CODE":"US","CLASSIFICATION_TYPE":"U","MEAN_ELEMENT_THEORY":"SGP4","PERIAPSIS":"546.102","DECAY_DATE":null,"ELEMENT_SET_NO":"999","MEAN_MOTION_DOT":"0.00023906","OBJECT_NAME":"STARLINK-1420","ARG_OF_PERICENTER":"99.8495","PERIOD":"95.591","TLE_LINE2":"2 45695  53.0531  25.7144 0001518  99.8495 260.2665 15.06419620150300","BSTAR":"0.00161750000000","ECCENTRICITY":"0.00015180","RA_OF_ASC_NODE":"25.7144","FILE":"3789366","SITE":"AFETR","LAUNCH_DATE":"2020-06-04","OBJECT_TYPE":"PAYLOAD","MEAN_MOTION":"15.06419620","RCS_SIZE":"LARGE","MEAN_MOTION_DDOT":"0.0000000000000"},{"DECAY_DATE":null,"TIME_SYSTEM":"UTC","COUNTRY_CODE":"US","PERIAPSIS":"545.976","MEAN_ELEMENT_THEORY":"SGP4","CLASSIFICATION_TYPE":"U","PERIOD":"95.593","ARG_OF_PERICENTER":"89.3055","TLE_LINE2":"2 45696  53.0556  44.4792 0001813  89.3055 270.8142 15.06394158149650","MEAN_MOTION_DOT":"0.00002930","ELEMENT_SET_NO":"999","OBJECT_NAME":"STARLINK-1422","RA_OF_ASC_NODE":"44.4792","BSTAR":"0.00021556000000","ECCENTRICITY":"0.00018130","OBJECT_TYPE":"PAYLOAD","LAUNCH_DATE":"2020-06-04","MEAN_MOTION":"15.06394158","RCS_SIZE":"LARGE","MEAN_MOTION_DDOT":"0.0000000000000","SITE":"AFETR","FILE":"3789660","INCLINATION":"53.0556","OBJECT_ID":"2020-035AR","REF_FRAME":"TEME","NORAD_CAT_ID":"45696","REV_AT_EPOCH":"14965","APOAPSIS":"548.487","EPOCH":"2023-02-13T16:37:27.685056","EPHEMERIS_TYPE":"0","MEAN_ANOMALY":"270.8142","GP_ID":"225335134","TLE_LINE1":"1 45696U 20035AR  23044.69268154  .00002930  00000-0  21556-3 0  9990","SEMIMAJOR_AXIS":"6925.366","CENTER_NAME":"EARTH"},{"INCLINATION":"53.0537","OBJECT_ID":"2020-035AS","REF_FRAME":"TEME","NORAD_CAT_ID":"45697","REV_AT_EPOCH":"15025","APOAPSIS":"548.266","EPOCH":"2023-02-13T01:43:06.382560","EPHEMERIS_TYPE":"0","MEAN_ANOMALY":"259.8978","TLE_LINE1":"1 45697U 20035AS  23044.07160165 -.00001509  00000-0 -82428-4 0  9995","GP_ID":"225321943","SEMIMAJOR_AXIS":"6925.363","CENTER_NAME":"EARTH","DECAY_DATE":null,"COUNTRY_CODE":"US","TIME_SYSTEM":"UTC","CLASSIFICATION_TYPE":"U","MEAN_ELEMENT_THEORY":"SGP4","PERIAPSIS":"546.190","ARG_OF_PERICENTER":"100.2180","PERIOD":"95.592","TLE_LINE2":"2 45697  53.0537  27.2747 0001499 100.2180 259.8978 15.06395322150257","MEAN_MOTION_DOT":"-0.00001509","ELEMENT_SET_NO":"999","OBJECT_NAME":"STARLINK-1351","RA_OF_ASC_NODE":"27.2747","BSTAR":"-0.00008242800000","ECCENTRICITY":"0.00014990","OBJECT_TYPE":"PAYLOAD","LAUNCH_DATE":"2020-06-04","MEAN_MOTION_DDOT":"0.0000000000000","RCS_SIZE":"LARGE","MEAN_MOTION":"15.06395322","FILE":"3789366","SITE":"AFETR"},{"LAUNCH_DATE":"2020-06-04","OBJECT_TYPE":"PAYLOAD","RCS_SIZE":"LARGE","MEAN_MOTION_DDOT":"0.0000000000000","MEAN_MOTION":"15.06391101","SITE":"AFETR","FILE":"3789649","RA_OF_ASC_NODE":"24.6390","BSTAR":"0.00060145000000","ECCENTRICITY":"0.00014140","ARG_OF_PERICENTER":"97.2100","PERIOD":"95.593","TLE_LINE2":"2 45698  53.0534  24.6390 0001414  97.2100 262.9050 15.06391101149945","MEAN_MOTION_DOT":"0.00008686","ELEMENT_SET_NO":"999","OBJECT_NAME":"STARLINK-1370","DECAY_DATE":null,"TIME_SYSTEM":"UTC","COUNTRY_CODE":"US","CLASSIFICATION_TYPE":"U","PERIAPSIS":"546.262","MEAN_ELEMENT_THEORY":"SGP4","EPHEMERIS_TYPE":"0","MEAN_ANOMALY":"262.9050","TLE_LINE1":"1 45698U 20035AT  23044.65672106  .00008686  00000-0  60145-3 0  9995","GP_ID":"225335051","SEMIMAJOR_AXIS":"6925.376","CENTER_NAME":"EARTH","REF_FRAME":"TEME","NORAD_CAT_ID":"45698","REV_AT_EPOCH":"14994","APOAPSIS":"548.220","EPOCH":"2023-02-13T15:45:40.699584","INCLINATION":"53.0534","OBJECT_ID":"2020-035AT"},{"DECAY_DATE":null,"MEAN_ELEMENT_THEORY":"SGP4","PERIAPSIS":"546.268","CLASSIFICATION_TYPE":"U","COUNTRY_CODE":"US","TIME_SYSTEM":"UTC","TLE_LINE2":"2 45699  53.0532  26.1846 0001312 106.0956 254.0177 15.06412009150284","PERIOD":"95.591","ARG_OF_PERICENTER":"106.0956","OBJECT_NAME":"STARLINK-1398","ELEMENT_SET_NO":"999","MEAN_MOTION_DOT":"0.00023229","RA_OF_ASC_NODE":"26.1846","ECCENTRICITY":"0.00013120","BSTAR":"0.00157270000000","RCS_SIZE":"LARGE","MEAN_MOTION":"15.06412009","MEAN_MOTION_DDOT":"0.0000000000000","OBJECT_TYPE":"PAYLOAD","LAUNCH_DATE":"2020-06-04","FILE":"3789366","SITE":"AFETR","OBJECT_ID":"2020-035AU","INCLINATION":"53.0532","NORAD_CAT_ID":"45699","REF_FRAME":"TEME","EPOCH":"2023-02-13T07:33:24.691104","REV_AT_EPOCH":"15028","APOAPSIS":"548.085","MEAN_ANOMALY":"254.0177","EPHEMERIS_TYPE":"0","SEMIMAJOR_AXIS":"6925.312","CENTER_NAME":"EARTH","GP_ID":"225321465","TLE_LINE1":"1 45699U 20035AU  23044.31486911  .00023229  00000-0  15727-2 0  9991"},{"RA_OF_ASC_NODE":"26.2039","ECCENTRICITY":"0.00018530","BSTAR":"-0.00002027300000","MEAN_MOTION":"15.06405860","RCS_SIZE":"LARGE","MEAN_MOTION_DDOT":"0.0000000000000","LAUNCH_DATE":"2020-06-04","OBJECT_TYPE":"PAYLOAD","FILE":"3789366","SITE":"AFETR","DECAY_DATE":null,"CLASSIFICATION_TYPE":"U","MEAN_ELEMENT_THEORY":"SGP4","PERIAPSIS":"545.912","TIME_SYSTEM":"UTC","COUNTRY_CODE":"US","TLE_LINE2":"2 45700  53.0553  26.2039 0001853 116.0280 244.0900 15.06405860150286","ARG_OF_PERICENTER":"116.0280","PERIOD":"95.592","OBJECT_NAME":"STARLINK-1400","ELEMENT_SET_NO":"999","MEAN_MOTION_DOT":"-0.00000584","MEAN_ANOMALY":"244.0900","EPHEMERIS_TYPE":"0","SEMIMAJOR_AXIS":"6925.331","CENTER_NAME":"EARTH","TLE_LINE1":"1 45700U 20035AV  23044.31118201 -.00000584  00000-0 -20273-4 0  9993","GP_ID":"225321717","INCLINATION":"53.0553","OBJECT_ID":"2020-035AV","NORAD_CAT_ID":"45700","REF_FRAME":"TEME","EPOCH":"2023-02-13T07:28:06.125664","REV_AT_EPOCH":"15028","APOAPSIS":"548.479"},{"CENTER_NAME":"EARTH","SEMIMAJOR_AXIS":"6925.345","TLE_LINE1":"1 45701U 20035AW  23044.67241360  .00012195  00000-0  83614-3 0  9992","GP_ID":"225334823","MEAN_ANOMALY":"273.6413","EPHEMERIS_TYPE":"0","EPOCH":"2023-02-13T16:08:16.535040","REV_AT_EPOCH":"14993","APOAPSIS":"548.459","NORAD_CAT_ID":"45701","REF_FRAME":"TEME","INCLINATION":"53.0524","OBJECT_ID":"2020-035AW","SITE":"AFETR","FILE":"3789652","RCS_SIZE":"LARGE","MEAN_MOTION_DDOT":"0.0000000000000","MEAN_MOTION":"15.06401098","LAUNCH_DATE":"2020-06-04","OBJECT_TYPE":"PAYLOAD","ECCENTRICITY":"0.00018030","BSTAR":"0.00083614000000","RA_OF_ASC_NODE":"24.5705","OBJECT_NAME":"STARLINK-1403","MEAN_MOTION_DOT":"0.00012195","ELEMENT_SET_NO":"999","TLE_LINE2":"2 45701  53.0524  24.5705 0001803  86.4782 273.6413 15.06401098149934","ARG_OF_PERICENTER":"86.4782","PERIOD":"95.592","CLASSIFICATION_TYPE":"U","PERIAPSIS":"545.962","MEAN_ELEMENT_THEORY":"SGP4","TIME_SYSTEM":"UTC","COUNTRY_CODE":"US","DECAY_DATE":null},{"OBJECT_NAME":"STARLINK-1405","MEAN_MOTION_DOT":"0.00000188","ELEMENT_SET_NO":"999","TLE_LINE2":"2 45702  53.0564  26.1516 0001822 111.4477 248.6706 15.06403466150286","ARG_OF_PERICENTER":"111.4477","PERIOD":"95.592","CLASSIFICATION_TYPE":"U","PERIAPSIS":"545.941","MEAN_ELEMENT_THEORY":"SGP4","COUNTRY_CODE":"US","TIME_SYSTEM":"UTC","DECAY_DATE":null,"SITE":"AFETR","FILE":"3789366","MEAN_MOTION_DDOT":"0.0000000000000","RCS_SIZE":"LARGE","MEAN_MOTION":"15.06403466","OBJECT_TYPE":"PAYLOAD","LAUNCH_DATE":"2020-06-04","ECCENTRICITY":"0.00018220","BSTAR":"0.00003151100000","RA_OF_ASC_NODE":"26.1516","EPOCH":"2023-02-13T07:44:01.779648","APOAPSIS":"548.465","REV_AT_EPOCH":"15028","NORAD_CAT_ID":"45702","REF_FRAME":"TEME","OBJECT_ID":"2020-035AX","INCLINATION":"53.0564","SEMIMAJOR_AXIS":"6925.338","CENTER_NAME":"EARTH","TLE_LINE1":"1 45702U 20035AX  23044.32224282  .00000188  00000-0  31511-4 0  9998","GP_ID":"225320716","MEAN_ANOMALY":"248.6706","EPHEMERIS_TYPE":"0"},{"SITE":"AFETR","FILE":"3789652","MEAN_MOTION_DDOT":"0.0000000000000","RCS_SIZE":"LARGE","MEAN_MOTION":"15.06404087","LAUNCH_DATE":"2020-06-04","OBJECT_TYPE":"PAYLOAD","ECCENTRICITY":"0.00019850","BSTAR":"0.00109100000000","RA_OF_ASC_NODE":"24.6729","OBJECT_NAME":"STARLINK-1407","MEAN_MOTION_DOT":"0.00016008","ELEMENT_SET_NO":"999","TLE_LINE2":"2 45703  53.0543  24.6729 0001985  94.0835 266.0381 15.06404087149929","ARG_OF_PERICENTER":"94.0835","PERIOD":"95.592","CLASSIFICATION_TYPE":"U","MEAN_ELEMENT_THEORY":"SGP4","PERIAPSIS":"545.826","COUNTRY_CODE":"US","TIME_SYSTEM":"UTC","DECAY_DATE":null,"SEMIMAJOR_AXIS":"6925.336","CENTER_NAME":"EARTH","TLE_LINE1":"1 45703U 20035AY  23044.65029462  .00016008  00000-0  10910-2 0  9994","GP_ID":"225335100","MEAN_ANOMALY":"266.0381","EPHEMERIS_TYPE":"0","EPOCH":"2023-02-13T15:36:25.455168","APOAPSIS":"548.576","REV_AT_EPOCH":"14992","NORAD_CAT_ID":"45703","REF_FRAME":"TEME","INCLINATION":"53.0543","OBJECT_ID":"2020-035AY"}];
